OBJECT_NAME,OBJECT_ID,EPOCH,MEAN_MOTION,ECCENTRICITY,INCLINATION,RA_OF_ASC_NODE,ARG_OF_PERICENTER,MEAN_ANOMALY,EPHEMERIS_TYPE,CLASSIFICATION_TYPE,NORAD_CAT_ID,ELEMENT_SET_NO,REV_AT_EPOCH,BSTAR,MEAN_MOTION_DOT,MEAN_MOTION_DDOT
COSMOS 2531 (RODNIK-S 17),2018-097B,2026-06-14T06:13:57.247968,12.42912268,.00177865,82.5194,225.1545,64.3521,295.9393,0,U,43752,999,34194,-.34740715E-3,-.38E-6,0
COSMOS 2532 (RODNIK-S 18),2018-097C,2026-06-14T06:54:39.656736,12.42909418,.00191991,82.5138,223.9243,66.1782,294.1308,0,U,43753,999,34191,-.692485E-5,.9E-7,0
MINXSS-2,2018-099A,2026-06-14T01:13:49.937088,15.46704865,.00064473,97.4547,241.2439,268.3563,91.6948,0,U,43758,999,41364,.6985835E-3,.34951E-3,0
SIRION PATHFINDER-2,2018-099B,2026-06-14T01:50:11.816160,15.14524392,.00074313,97.4257,214.2077,317.9791,42.0871,0,U,43759,999,41215,.28364204E-3,.5164E-4,0
AISTECHSAT 2,2018-099L,2026-06-14T02:49:24.292992,15.15422643,.00033721,97.4298,213.2186,326.0876,34.0140,0,U,43768,999,41181,.28191047E-3,.5262E-4,0
FOX-1CLIFF (AO-95),2018-099N,2026-06-14T03:04:39.014976,15.26654463,.00082983,97.4390,225.3853,9.0334,351.1052,0,U,43770,999,41275,.45844507E-3,.11968E-3,0
RANGE-A,2018-099R,2026-06-14T01:41:23.664192,15.13364678,.00101643,97.3966,207.7404,7.7238,352.4148,0,U,43773,999,41202,.2918231E-3,.5147E-4,0
SNUSAT-2,2018-099AA,2026-06-14T02:40:26.503104,15.21797709,.00087633,97.4062,218.5423,311.0758,48.9720,0,U,43782,999,41256,.38269478E-3,.8628E-4,0
SNUGLITE,2018-099AC,2026-06-14T03:06:36.982080,15.27120086,.00012917,97.3877,219.4395,317.8162,42.2978,0,U,43784,999,41285,.44474929E-3,.11763E-3,0
ITASAT,2018-099AE,2026-06-14T02:57:29.670912,15.19023460,.00124283,97.4033,216.6958,11.1997,348.9512,0,U,43786,999,41244,.31977918E-3,.6642E-4,0
EAGLET-I,2018-099AJ,2026-06-14T01:50:15.913248,15.12919971,.00109959,97.4235,214.8274,5.3059,354.8287,0,U,43790,999,41186,.26402047E-3,.4593E-4,0
ESEO,2018-099AL,2026-06-13T20:30:11.794752,15.04235786,.00116807,97.3970,202.3849,351.0456,9.0560,0,U,43792,999,41130,.16198005E-3,.2196E-4,0
THEA,2018-099AQ,2026-06-14T03:18:59.975424,15.34923384,.00058754,97.4447,234.8005,297.1242,62.9402,0,U,43796,999,41222,.56214977E-3,.18994E-3,0
ASTROCAST 0.1,2018-099AS,2026-06-14T03:52:31.967904,15.49357365,.00049185,97.4384,243.5643,214.5977,145.4955,0,U,43798,999,41396,.67052866E-3,.36778E-3,0
JY1SAT (JO-97),2018-099AX,2026-06-14T03:49:49.540224,15.33568110,.00042143,97.4134,227.9830,277.2169,82.8595,0,U,43803,999,41316,.5156255E-3,.16674E-3,0
SUOMI-100,2018-099AY,2026-06-14T03:05:57.664896,15.28353020,.00083638,97.4196,225.5335,292.2364,67.7988,0,U,43804,999,41295,.46634493E-3,.12822E-3,0
CENTAURI-1,2018-099BD,2026-06-14T02:30:32.916096,15.16338432,.00133755,97.4225,216.8899,345.1587,14.9252,0,U,43809,999,41203,.30253026E-3,.5813E-4,0
GLOBAL-2,2018-099BG,2026-06-14T02:09:50.698368,15.08657561,.00067222,97.3559,201.7324,150.5385,209.6224,0,U,43812,999,41144,.19501317E-3,.2995E-4,0
SEAHAWK-1,2018-099BQ,2026-06-14T02:43:32.743488,15.22763868,.00070224,97.3963,217.6458,328.5622,31.5194,0,U,43820,999,41206,.39173108E-3,.9087E-4,0
SAUDISAT 5A,2018-102A,2026-06-14T06:48:09.889920,15.28021124,.00108401,97.3073,226.9200,137.9855,222.2218,0,U,43831,999,41523,.19964137E-3,.5392E-4,0
SAUDISAT 5B,2018-102C,2026-06-14T05:41:43.197792,15.28278699,.00114905,97.3181,229.9391,140.5297,219.6782,0,U,43833,999,41534,.18511525E-3,.5035E-4,0
ISAT,2018-111D,2026-06-14T06:50:26.789856,15.64819747,.00008316,97.5885,100.2842,88.1423,271.9931,0,U,43879,999,41071,.94287995E-3,.92545E-3,0
UWE-4,2018-111E,2026-06-14T07:15:43.547040,15.45969448,.0006031,97.5859,93.5612,355.2213,4.8977,0,U,43880,999,41033,.66149013E-3,.3225E-3,0
D-STAR ONE (SPARROW),2018-111F,2026-06-14T01:54:32.325984,15.73596164,.00044351,97.6123,105.6259,108.6356,251.5389,0,U,43881,999,41088,.11201243E-2,.158918E-2,0
JILIN-1 09,2019-005B,2026-06-14T06:49:31.895616,15.20492107,.00038025,97.4743,260.2714,100.2210,259.9454,0,U,43943,999,40870,.22161727E-3,.4773E-4,0
JILIN-1 10,2019-005E,2026-06-14T07:21:14.362272,15.25695306,.00065898,97.4790,264.1103,291.7181,68.3355,0,U,43946,999,40887,.22056802E-3,.5549E-4,0
EGYPTSAT-A (MISRSAT-A),2019-008A,2026-06-14T06:55:56.927712,14.72305917,.0001282,98.0161,230.0888,96.4686,263.6668,0,U,44047,999,39281,.21935247E-3,.1337E-4,0
EMISAT,2019-018A,2026-06-14T07:15:55.831392,14.43685622,.00175692,98.4652,224.1188,223.7918,136.1880,0,U,44078,999,37964,.40616658E-4,.94E-6,0
