COSMOS 2531 (RODNIK-S *)
1 43752U 18097B   26165.25969037 -.00000038  00000+0 -34741-3 0  9991
2 43752  82.5194 225.1545 0017786  64.3521 295.9393 12.42912268341944
COSMOS 2532 (RODNIK-S *)
1 43753U 18097C   26165.28795899  .00000009  00000+0 -69249-5 0  9998
2 43753  82.5138 223.9243 0019199  66.1782 294.1308 12.42909418341910
MINXSS-2                
1 43758U 18099A   26165.05127242  .00034951  00000+0  69858-3 0  9997
2 43758  97.4547 241.2439 0006447 268.3563  91.6948 15.46704865413645
SIRION PATHFINDER-2     
1 43759U 18099B   26165.07652565  .00005164  00000+0  28364-3 0  9992
2 43759  97.4257 214.2077 0007431 317.9791  42.0871 15.14524392412150
AISTECHSAT 2            
1 43768U 18099L   26165.11764228  .00005262  00000+0  28191-3 0  9994
2 43768  97.4298 213.2186 0003372 326.0876  34.0140 15.15422643411819
FOX-1CLIFF (AO-95)      
1 43770U 18099N   26165.12822934  .00011968  00000+0  45845-3 0  9992
2 43770  97.4390 225.3853 0008298   9.0334 351.1052 15.26654463412757
RANGE-A                 
1 43773U 18099R   26165.07041278  .00005147  00000+0  29182-3 0  9991
2 43773  97.3966 207.7404 0010164   7.7238 352.4148 15.13364678412029
SNUSAT-2                
1 43782U 18099AA  26165.11141786  .00008628  00000+0  38269-3 0  9994
2 43782  97.4062 218.5423 0008763 311.0758  48.9720 15.21797709412564
SNUGLITE                
1 43784U 18099AC  26165.12959470  .00011763  00000+0  44475-3 0  9994
2 43784  97.3877 219.4395 0001291 317.8162  42.2978 15.27120086412857
ITASAT                  
1 43786U 18099AE  26165.12326008  .00006642  00000+0  31978-3 0  9995
2 43786  97.4033 216.6958 0012428  11.1997 348.9512 15.19023460412446
EAGLET-I                
1 43790U 18099AJ  26165.07657307  .00004593  00000+0  26402-3 0  9992
2 43790  97.4235 214.8274 0010995   5.3059 354.8287 15.12919971411861
ESEO                    
1 43792U 18099AL  26164.85430318  .00002196  00000+0  16198-3 0  9998
2 43792  97.3970 202.3849 0011680 351.0456   9.0560 15.04235786411300
THEA                    
1 43796U 18099AQ  26165.13819416  .00018994  00000+0  56215-3 0  9991
2 43796  97.4447 234.8005 0005875 297.1242  62.9402 15.34923384412226
ASTROCAST 0.1           
1 43798U 18099AS  26165.16148111  .00036778  00000+0  67053-3 0  9995
2 43798  97.4384 243.5643 0004918 214.5977 145.4955 15.49357365413966
JY1SAT (JO-97)          
1 43803U 18099AX  26165.15960116  .00016674  00000+0  51563-3 0  9990
2 43803  97.4134 227.9830 0004214 277.2169  82.8595 15.33568110413169
SUOMI-100               
1 43804U 18099AY  26165.12913964  .00012822  00000+0  46634-3 0  9991
2 43804  97.4196 225.5335 0008363 292.2364  67.7988 15.28353020412955
CENTAURI-1              
1 43809U 18099BD  26165.10454764  .00005813  00000+0  30253-3 0  9994
2 43809  97.4225 216.8899 0013375 345.1587  14.9252 15.16338432412039
GLOBAL-2                
1 43812U 18099BG  26165.09017012  .00002995  00000+0  19501-3 0  9998
2 43812  97.3559 201.7324 0006722 150.5385 209.6224 15.08657561411444
SEAHAWK-1               
1 43820U 18099BQ  26165.11357342  .00009087  00000+0  39173-3 0  9999
2 43820  97.3963 217.6458 0007022 328.5622  31.5194 15.22763868412062
SAUDISAT 5A             
1 43831U 18102A   26165.28344780  .00005392  00000+0  19964-3 0  9997
2 43831  97.3073 226.9200 0010840 137.9855 222.2218 15.28021124415232
SAUDISAT 5B             
1 43833U 18102C   26165.23730553  .00005035  00000+0  18512-3 0  9993
2 43833  97.3181 229.9391 0011490 140.5297 219.6782 15.28278699415349
ISAT                    
1 43879U 18111D   26165.28503229  .00092545  00000+0  94288-3 0  9992
2 43879  97.5885 100.2842 0000831  88.1423 271.9931 15.64819747410717
UWE-4                   
1 43880U 18111E   26165.30258735  .00032250  00000+0  66149-3 0  9998
2 43880  97.5859  93.5612 0006031 355.2213   4.8977 15.45969448410336
D-STAR ONE (SPARROW)    
1 43881U 18111F   26165.07954081  .00158918  00000+0  11201-2 0  9998
2 43881  97.6123 105.6259 0004435 108.6356 251.5389 15.73596164410888
JILIN-1 09              
1 43943U 19005B   26165.28439694  .00004773  00000+0  22162-3 0  9999
2 43943  97.4743 260.2714 0003802 100.2210 259.9454 15.20492107408708
JILIN-1 10              
1 43946U 19005E   26165.30641623  .00005549  00000+0  22057-3 0  9997
2 43946  97.4790 264.1103 0006589 291.7181  68.3355 15.25695306408877
EGYPTSAT-A (MISRSAT-A)  
1 44047U 19008A   26165.28885333  .00001337  00000+0  21935-3 0  9993
2 44047  98.0161 230.0888 0001282  96.4686 263.6668 14.72305917392816
EMISAT                  
1 44078U 19018A   26165.30272953  .00000094  00000+0  40617-4 0  9997
2 44078  98.4652 224.1188 0017569 223.7918 136.1880 14.43685622379642
